IRIDIUM 119             
1 42959U 17061E   25359.75192885  .00000343  00000+0  11556-3 0  9993
2 42959  86.3971  97.7777 0001885 101.2491 258.8916 14.34218021429953
IRIDIUM 107             
1 42960U 17061F   25359.70118877 -.00000002  00000+0 -77739-5 0  9990
2 42960  86.3971  97.8191 0002211 106.9581 253.1857 14.34217584429957
IRIDIUM 132             
1 42961U 17061G   25359.77729985  .00000135  00000+0  41172-4 0  9992
2 42961  86.3969  97.7678 0002133 100.3530 259.7907 14.34217842429965
IRIDIUM 136             
1 42962U 17061H   25359.80901204  .00000059  00000+0  14109-4 0  9998
2 42962  86.3972  97.7607 0002055 100.8811 259.2616 14.34218155429984
IRIDIUM 139             
1 42963U 17061J   25359.81535551  .00000106  00000+0  30624-4 0  9991
2 42963  86.3971  97.8170 0002191  99.6827 260.4616 14.34217686429996
IRIDIUM 125             
1 42964U 17061K   25359.80266669  .00000344  00000+0  11581-3 0  9996
2 42964  86.3972  97.8800 0002096 112.3844 247.7574 14.34216500430003
IRIDIUM 135             
1 43070U 17083A   25359.56749023  .00000197  00000+0  63442-4 0  9992
2 43070  86.3956  34.5799 0002094  92.4125 267.7310 14.34217584419265
IRIDIUM 138             
1 43071U 17083B   25359.52309110  .00000138  00000+0  42225-4 0  9999
2 43071  86.3970  34.2671 0001821  98.4599 261.6803 14.34217106419244
